[{"OBJECT_NAME":"HORS 2","OBJECT_ID":"2023-091AG","EPOCH":"2026-03-09T22:11:34.810944","MEAN_MOTION":15.2928008,"ECCENTRICITY":0.00098173,"INCLINATION":97.5195,"RA_OF_ASC_NODE":134.7443,"ARG_OF_PERICENTER":79.3164,"MEAN_ANOMALY":280.9181,"EPHEMERIS_TYPE":0,"CLASSIFICATION_TYPE":"U","NORAD_CAT_ID":57196,"ELEMENT_SET_NO":999,"REV_AT_EPOCH":14934,"BSTAR":0.00059338338,"MEAN_MOTION_DOT":0.00016821,"MEAN_MOTION_DDOT":0},{"OBJECT_NAME":"STARLINK-32436","OBJECT_ID":"2024-171R","EPOCH":"2026-03-09T21:19:21.430272","MEAN_MOTION":15.30184208,"ECCENTRICITY":9.889e-5,"INCLINATION":53.1614,"RA_OF_ASC_NODE":321.1848,"ARG_OF_PERICENTER":96.2543,"MEAN_ANOMALY":263.857,"EPHEMERIS_TYPE":0,"CLASSIFICATION_TYPE":"U","NORAD_CAT_ID":61215,"ELEMENT_SET_NO":999,"REV_AT_EPOCH":8240,"BSTAR":6.6157322e-5,"MEAN_MOTION_DOT":1.6e-5,"MEAN_MOTION_DDOT":0}]
